CALSPHERE 1             
1 00900U 64063C   24182.17408387  .00000947  00000+0  97970-3 0  9997
2 00900  90.2037  55.6597 0024400 306.2474 178.5150 13.75099954972811
CALSPHERE 2             
1 00902U 64063E   24181.96371523  .00000057  00000+0  72873-4 0  9994
2 00902  90.2191  59.2762 0019524 144.3832 229.3403 13.52803184759292
LCS 1                   
1 01361U 65034C   24181.92515852 -.00000003  00000+0 -14203-2 0  9998
2 01361  32.1428  80.0473 0006210  85.4860 274.6347  9.89305563138851
TEMPSAT 1               
1 01512U 65065E   24181.86470815  .00000054  00000+0  88339-4 0  9999
2 01512  89.9533 214.0240 0071755 102.6843  72.3383 13.33518346864449
CALSPHERE 4A            
1 01520U 65065H   24182.13013354  .00000173  00000+0  31698-3 0  9997
2 01520  89.9469 127.9853 0068284 328.6159  44.1220 13.36075934867366
OPS 5712 (P/L 160)      
1 02826U 67053A   24182.15816266  .00010490  00000+0  22060-2 0  9996
2 02826  69.9256 334.0316 0002695  10.7683 349.3513 14.59745057961353
OPS 5712 (P/L 153)      
1 02874U 67053H   24182.19688357  .00000065  00000+0  85028-4 0  9993
2 02874  69.9720 211.8829 0005743  28.4393 331.7025 13.96598068907142
SURCAL 150B             
1 02909U 67053J   24181.80953033  .00024887  00000+0  31398-2 0  9992
2 02909  69.9394 279.2137 0000221  94.5542 265.5633 14.81873846972904
RIGIDSPHERE 2 (LCS 4)   
1 05398U 71067E   24181.93364718  .00001702  00000+0  56855-3 0  9994
2 05398  87.6274 177.6812 0064054  90.1157 270.7381 14.35826257770875
COSMOS 2493 (SKRL-756 1)
1 39490U 13078A   24182.20099715  .00004434  00000+0  40801-3 0  9994
2 39490  82.4155 239.0072 0016729 137.1281 223.1247 14.94447997570880
COSMOS 2494 (SKRL-756 2)
1 39491U 13078B   24182.17545142  .00004785  00000+0  41915-3 0  9997
2 39491  82.4152 230.9913 0020990 109.8000 250.5487 14.96323057571313
